{
  "type": "FeatureCollection",
  "name": "Pakistan Cities",
  "features": [
    {"type":"Feature","properties":{"name":"Islamabad","province":"Islamabad Capital Territory","type":"Capital"},"geometry":{"type":"Point","coordinates":[73.0479,33.6844]}},
    {"type":"Feature","properties":{"name":"Lahore","province":"Punjab","type":"Provincial capital"},"geometry":{"type":"Point","coordinates":[74.3587,31.5204]}},
    {"type":"Feature","properties":{"name":"Karachi","province":"Sindh","type":"Provincial capital / port city"},"geometry":{"type":"Point","coordinates":[67.0011,24.8607]}},
    {"type":"Feature","properties":{"name":"Peshawar","province":"Khyber Pakhtunkhwa","type":"Provincial capital"},"geometry":{"type":"Point","coordinates":[71.5249,34.0151]}},
    {"type":"Feature","properties":{"name":"Quetta","province":"Balochistan","type":"Provincial capital"},"geometry":{"type":"Point","coordinates":[66.9750,30.1798]}},
    {"type":"Feature","properties":{"name":"Multan","province":"Punjab","type":"Regional city"},"geometry":{"type":"Point","coordinates":[71.5249,30.1575]}},
    {"type":"Feature","properties":{"name":"Faisalabad","province":"Punjab","type":"Industrial city"},"geometry":{"type":"Point","coordinates":[73.1350,31.4504]}},
    {"type":"Feature","properties":{"name":"Rawalpindi","province":"Punjab","type":"Major city"},"geometry":{"type":"Point","coordinates":[73.0169,33.5651]}},
    {"type":"Feature","properties":{"name":"Hyderabad","province":"Sindh","type":"Regional city"},"geometry":{"type":"Point","coordinates":[68.3578,25.3960]}},
    {"type":"Feature","properties":{"name":"Sialkot","province":"Punjab","type":"Industrial city"},"geometry":{"type":"Point","coordinates":[74.5431,32.4945]}},
    {"type":"Feature","properties":{"name":"Sukkur","province":"Sindh","type":"Regional city"},"geometry":{"type":"Point","coordinates":[68.8574,27.7052]}},
    {"type":"Feature","properties":{"name":"Gilgit","province":"Gilgit-Baltistan","type":"Regional city"},"geometry":{"type":"Point","coordinates":[74.3142,35.9208]}},
    {"type":"Feature","properties":{"name":"Muzaffarabad","province":"Azad Jammu and Kashmir","type":"Regional capital"},"geometry":{"type":"Point","coordinates":[73.4708,34.3700]}},
    {"type":"Feature","properties":{"name":"Gwadar","province":"Balochistan","type":"Port city"},"geometry":{"type":"Point","coordinates":[62.3254,25.1264]}},
    {"type":"Feature","properties":{"name":"Bahawalpur","province":"Punjab","type":"Regional city"},"geometry":{"type":"Point","coordinates":[71.6911,29.3956]}}
  ]
}
